[{"OBJECT_NAME":"STARLINK-1995","OBJECT_ID":"2021-009AU","EPOCH":"2026-03-09T22:00:01.999584","MEAN_MOTION":15.56337819,"ECCENTRICITY":0.00072287,"INCLINATION":53.0479,"RA_OF_ASC_NODE":18.2943,"ARG_OF_PERICENTER":82.4269,"MEAN_ANOMALY":357.8664,"EPHEMERIS_TYPE":0,"CLASSIFICATION_TYPE":"U","NORAD_CAT_ID":47590,"ELEMENT_SET_NO":999,"REV_AT_EPOCH":586,"BSTAR":0.0018767975,"MEAN_MOTION_DOT":0.00136547,"MEAN_MOTION_DDOT":0},{"OBJECT_NAME":"DONGPO 07","OBJECT_ID":"2022-098A","EPOCH":"2026-03-09T22:39:41.535072","MEAN_MOTION":15.58082011,"ECCENTRICITY":0.00031318,"INCLINATION":97.5414,"RA_OF_ASC_NODE":192.813,"ARG_OF_PERICENTER":358.3242,"MEAN_ANOMALY":1.8003,"EPHEMERIS_TYPE":0,"CLASSIFICATION_TYPE":"U","NORAD_CAT_ID":53444,"ELEMENT_SET_NO":999,"REV_AT_EPOCH":19923,"BSTAR":0.00092859707,"MEAN_MOTION_DOT":0.00070169,"MEAN_MOTION_DDOT":0}]
